{
  "type": "FeatureCollection",
  "features": [
    {
      "type": "Feature",
      "properties": {
        "norad_id": 64902,
        "name": "CO3D 2",
        "group": "resource",
        "lat": 10.944554129859412,
        "lon": 53.391169503676885,
        "alt_km": 506.79081890099405,
        "timestamp": "2025-12-04T10:51:49.764100+00:00",
        "meta_object_name": "CO3D 2",
        "meta_object_id": "2025-156D",
        "meta_epoch": "2025-12-04T04:29:47.116032",
        "meta_mean_motion": 15.20196547,
        "meta_eccentricity": 9.25e-05,
        "meta_inclination": 97.4351,
        "meta_ra_of_asc_node": 54.5767,
        "meta_arg_of_pericenter": 104.4969,
        "meta_mean_anomaly": 255.6369,
        "meta_ephemeris_type": 0,
        "meta_classification_type": "U",
        "meta_norad_cat_id": 64902,
        "meta_element_set_no": 999,
        "meta_rev_at_epoch": 1990,
        "meta_bstar": 0.001083,
        "meta_mean_motion_dot": 0.00023447,
        "meta_mean_motion_ddot": 0,
        "tle_line1": "1 64902U 25156D   25338.18735088  .00023447  00000+0  10830-2 0  9994",
        "tle_line2": "2 64902  97.4351  54.5767 0000925 104.4969 255.6369 15.20196547 19900"
      },
      "geometry": {
        "type": "Point",
        "coordinates": [
          53.391169503676885,
          10.944554129859412
        ]
      }
    },
    {
      "type": "Feature",
      "properties": {
        "norad_id": 64903,
        "name": "CO3D 1",
        "group": "resource",
        "lat": 10.110770147451962,
        "lon": 53.50301265306451,
        "alt_km": 507.0773682692243,
        "timestamp": "2025-12-04T10:51:49.764110+00:00",
        "meta_object_name": "CO3D 1",
        "meta_object_id": "2025-156E",
        "meta_epoch": "2025-12-04T04:30:00.330048",
        "meta_mean_motion": 15.20194789,
        "meta_eccentricity": 0.0001009,
        "meta_inclination": 97.435,
        "meta_ra_of_asc_node": 54.576,
        "meta_arg_of_pericenter": 115.4641,
        "meta_mean_anomaly": 244.6699,
        "meta_ephemeris_type": 0,
        "meta_classification_type": "U",
        "meta_norad_cat_id": 64903,
        "meta_element_set_no": 999,
        "meta_rev_at_epoch": 1990,
        "meta_bstar": 0.00070887,
        "meta_mean_motion_dot": 0.00015306,
        "meta_mean_motion_ddot": 0,
        "tle_line1": "1 64903U 25156E   25338.18750382  .00015306  00000+0  70887-3 0  9993",
        "tle_line2": "2 64903  97.4350  54.5760 0001009 115.4641 244.6699 15.20194789 19906"
      },
      "geometry": {
        "type": "Point",
        "coordinates": [
          53.50301265306451,
          10.110770147451962
        ]
      }
    },
    {
      "type": "Feature",
      "properties": {
        "norad_id": 66514,
        "name": "SENTINEL-6B",
        "group": "resource",
        "lat": -22.14805079769137,
        "lon": 169.29357073434358,
        "alt_km": 1318.8330406890136,
        "timestamp": "2025-12-04T10:51:49.764120+00:00",
        "meta_object_name": "SENTINEL-6B",
        "meta_object_id": "2025-264A",
        "meta_epoch": "2025-12-03T21:55:25.872096",
        "meta_mean_motion": 12.85877574,
        "meta_eccentricity": 0.0011544,
        "meta_inclination": 66.039,
        "meta_ra_of_asc_node": 180.8509,
        "meta_arg_of_pericenter": 268.5805,
        "meta_mean_anomaly": 91.389,
        "meta_ephemeris_type": 0,
        "meta_classification_type": "U",
        "meta_norad_cat_id": 66514,
        "meta_element_set_no": 999,
        "meta_rev_at_epoch": 215,
        "meta_bstar": 0.00031328,
        "meta_mean_motion_dot": 1.5e-07,
        "meta_mean_motion_ddot": 0,
        "tle_line1": "1 66514U 25264A   25337.91349389  .00000015  00000+0  31328-3 0  9992",
        "tle_line2": "2 66514  66.0390 180.8509 0011544 268.5805  91.3890 12.85877574  2150"
      },
      "geometry": {
        "type": "Point",
        "coordinates": [
          169.29357073434358,
          -22.14805079769137
        ]
      }
    }
  ]
}